OBJECT_NAME,OBJECT_ID,EPOCH,MEAN_MOTION,ECCENTRICITY,INCLINATION,RA_OF_ASC_NODE,ARG_OF_PERICENTER,MEAN_ANOMALY,EPHEMERIS_TYPE,CLASSIFICATION_TYPE,NORAD_CAT_ID,ELEMENT_SET_NO,REV_AT_EPOCH,BSTAR,MEAN_MOTION_DOT,MEAN_MOTION_DDOT
SL-8 R/B,1985-006B,2026-07-14T22:11:45.437280,14.37845240,.00192599,74.0453,27.0187,270.0731,197.1850,0,U,15483,999,17231,.5063387E-4,.126E-5,0
SL-12 R/B(2),1985-042D,2026-07-14T11:15:29.058048,14.22010809,.00373103,71.1066,179.8755,287.2413,201.8033,0,U,15772,999,13241,.11157892E-4,-.23E-6,0
SL-14 R/B,1985-069B,2026-07-14T16:48:10.089792,14.86534936,.00200139,82.5263,265.4919,128.8171,231.4837,0,U,15945,999,19170,.21098567E-4,.212E-5,0
SL-16 R/B,1985-097B,2026-07-14T12:46:49.491264,14.16612570,.00056109,71.0008,233.5079,53.0778,52.3058,0,U,16182,999,10519,.79059466E-4,.11E-5,0
SL-14 R/B,1986-006B,2026-07-14T21:51:45.180576,14.86968188,.00754403,82.5282,140.0250,209.8049,149.8863,0,U,16496,999,16811,.22486159E-4,.238E-5,0
COSMOS 1743,1986-034A,2026-07-14T18:36:32.789664,15.69584224,.00053919,82.5284,299.3434,177.7066,182.4221,0,U,16719,999,20011,.31712179E-3,.37565E-3,0
SL-14 R/B,1986-046B,2026-07-14T20:01:09.389280,14.85690396,.00234943,82.4839,320.0518,164.1915,196.0040,0,U,16792,999,14528,.24718146E-4,.24E-5,0
SL-14 R/B,1986-055B,2026-07-14T23:17:15.646272,14.85740202,.00173079,82.5203,7.0077,271.0772,204.6458,0,U,16882,999,13826,.22216862E-4,.217E-5,0
AJISAI (EGS),1986-061A,2026-07-14T22:16:22.259424,12.44516653,.00110922,50.0106,62.0930,251.1801,206.9072,0,U,16908,999,48384,-.95833193E-4,-.111E-5,0
SL-14 R/B,1987-024B,2026-07-14T21:19:38.799264,14.86231588,.00177866,82.5297,333.2120,194.8266,165.2432,0,U,17567,999,10702,.22486951E-4,.223E-5,0
COSMOS 1833,1987-027A,2026-07-14T20:35:03.043104,14.13066531,.00242322,70.9213,58.7099,9.2465,350.9097,0,U,17589,999,2828,.73581035E-4,.9E-6,0
SL-16 R/B,1987-027B,2026-07-14T21:14:31.874496,14.17173383,.00071416,71.0032,8.4593,281.9790,78.0533,0,U,17590,999,3336,.64085078E-4,.81E-6,0
SL-14 R/B,1987-038B,2026-07-14T09:50:44.097504,14.85461149,.00208101,82.5012,177.4292,104.6011,255.7514,0,U,17912,999,9804,.21728785E-4,.213E-5,0
COSMOS 1844,1987-041A,2026-07-14T21:32:32.767872,14.14580695,.0031357,70.8998,125.8574,195.6963,164.3190,0,U,17973,999,2157,.70834011E-4,.88E-6,0
SL-14 R/B,1987-055B,2026-07-14T13:36:09.935424,14.85726770,.0019454,82.4973,229.4178,317.2918,42.6785,0,U,18153,999,8877,.20602E-4,.203E-5,0
COSMOS 1867,1987-060A,2026-07-14T15:48:06.278400,14.31518447,.00171278,65.0119,311.1232,281.9925,77.9240,0,U,18187,999,3811,.1341854E-4,-.65E-6,0
SL-14 R/B,1988-001B,2026-07-14T18:32:50.887680,14.85626644,.00181331,82.5120,75.8201,173.1770,186.9697,0,U,18749,999,6089,.205117E-4,.202E-5,0
COSMOS 1933,1988-020A,2026-07-14T21:44:51.861120,15.18887505,.0005875,82.5142,124.9844,108.0321,252.1554,0,U,18958,999,6953,.81399523E-4,.1729E-4,0
SL-3 R/B,1988-032B,2026-07-14T22:35:12.966720,15.21030236,.00264734,97.5270,178.9597,146.5891,213.7022,0,U,19046,999,7144,.96137046E-4,.208E-4,0
SL-16 R/B,1988-039B,2026-07-14T21:11:24.033984,14.19631366,.00206378,71.0124,159.5951,149.8939,210.3377,0,U,19120,999,97643,-.8923004E-5,-.67E-6,0
COSMOS 1953,1988-050A,2026-07-14T22:36:47.983392,15.30335822,.00115599,82.5058,30.0349,40.6966,319.5136,0,U,19210,999,5723,.14824181E-3,.439E-4,0
SL-8 R/B,1988-053B,2026-07-14T14:48:11.145888,14.38978113,.0019705,74.0459,238.4953,24.2594,93.5666,0,U,19257,999,99485,.49806E-4,.128E-5,0
COSMOS 1975,1988-093A,2026-07-14T21:26:49.754688,15.29659856,.00125351,82.5197,349.8224,83.3921,276.8746,0,U,19573,999,3884,.12963025E-3,.3767E-4,0
SL-14 R/B,1988-093B,2026-07-14T18:16:12.679968,14.85759940,.00200588,82.5316,282.7593,341.7972,136.5487,0,U,19574,999,1988,.19954724E-4,.198E-5,0
SL-16 R/B,1988-102B,2026-07-14T13:15:46.423296,14.16166708,.0014344,70.9978,244.5592,186.5254,173.5685,0,U,19650,999,94485,-.46752E-4,-.14E-5,0
INTERCOSMOS 24,1989-080A,2026-07-14T21:24:59.271552,12.59691939,.11871841,82.6049,21.6116,357.6488,1.9300,0,U,20261,999,68281,.37671755E-4,.142E-5,0
SL-14 R/B,1989-080C,2026-07-14T18:18:02.160864,12.50578429,.12286884,82.5934,91.5902,254.2815,91.9672,0,U,20262,999,67603,.19938387E-4,.68E-6,0
DELTA 1 R/B,1989-089B,2026-07-14T22:42:30.186144,14.50747755,.00706356,97.0635,23.0621,80.7606,280.1573,0,U,20323,999,91418,.41233463E-4,.133E-5,0
ARIANE 40 R/B,1990-005H,2026-07-14T18:29:23.883648,14.39940559,.00102385,98.2946,252.5267,175.2570,184.8718,0,U,20443,999,91109,.43879518E-4,.96E-6,0
DELTA 2 R/B(1),1990-008B,2026-07-14T21:28:07.937184,15.73550372,.005915,35.5999,49.6579,13.1124,347.1141,0,U,20453,999,94606,.48965055E-3,.79925E-3,0
